{
    "links": {
        "self": "http://www.neowsapp.com/rest/v1/neo/3781445?api_key=iIulBulltgU6a56xZRHN4H3l9WmuAYTsLGpBGhQ2"
    },
    "id": "3781445",
    "neo_reference_id": "3781445",
    "name": "(2017 RC15)",
    "designation": "2017 RC15",
    "nasa_jpl_url": "http://ssd.jpl.nasa.gov/sbdb.cgi?sstr=3781445",
    "absolute_magnitude_h": 22.9,
    "estimated_diameter": {
        "kilometers": {
            "estimated_diameter_min": 0.0699125232,
            "estimated_diameter_max": 0.1563291544
        },
        "meters": {
            "estimated_diameter_min": 69.9125232246,
            "estimated_diameter_max": 156.3291544087
        },
        "miles": {
            "estimated_diameter_min": 0.0434416145,
            "estimated_diameter_max": 0.097138403
        },
        "feet": {
            "estimated_diameter_min": 229.3718026961,
            "estimated_diameter_max": 512.8909429502
        }
    },
    "is_potentially_hazardous_asteroid": false,
    "close_approach_data": [
        {
            "close_approach_date": "1925-09-05",
            "close_approach_date_full": "1925-Sep-05 17:46",
            "epoch_date_close_approach": -1398665640000,
            "relative_velocity": {
                "kilometers_per_second": "6.3720291432",
                "kilometers_per_hour": "22939.3049154828",
                "miles_per_hour": "14253.591990401"
            },
            "miss_distance": {
                "astronomical": "0.2654479281",
                "lunar": "103.2592440309",
                "kilometers": "39710444.639673147",
                "miles": "24674926.1075655486"
            },
            "orbiting_body": "Earth"
        },
        {
            "close_approach_date": "1936-09-03",
            "close_approach_date_full": "1936-Sep-03 06:15",
            "epoch_date_close_approach": -1051724700000,
            "relative_velocity": {
                "kilometers_per_second": "7.5870264247",
                "kilometers_per_hour": "27313.2951288006",
                "miles_per_hour": "16971.4194093372"
            },
            "miss_distance": {
                "astronomical": "0.3573010297",
                "lunar": "138.9901005533",
                "kilometers": "53451472.991926739",
                "miles": "33213205.2003934382"
            },
            "orbiting_body": "Earth"
        },
        {
            "close_approach_date": "2006-09-17",
            "close_approach_date_full": "2006-Sep-17 11:26",
            "epoch_date_close_approach": 1158492360000,
            "relative_velocity": {
                "kilometers_per_second": "5.7219715899",
                "kilometers_per_hour": "20599.0977235566",
                "miles_per_hour": "12799.4782493955"
            },
            "miss_distance": {
                "astronomical": "0.3846151962",
                "lunar": "149.6153113218",
                "kilometers": "57537614.121152094",
                "miles": "35752215.5626191372"
            },
            "orbiting_body": "Earth"
        },
        {
            "close_approach_date": "2017-09-07",
            "close_approach_date_full": "2017-Sep-07 07:03",
            "epoch_date_close_approach": 1504767780000,
            "relative_velocity": {
                "kilometers_per_second": "5.9775721221",
                "kilometers_per_hour": "21519.2596395966",
                "miles_per_hour": "13371.2310799483"
            },
            "miss_distance": {
                "astronomical": "0.2520524157",
                "lunar": "98.0483897073",
                "kilometers": "37706504.517074559",
                "miles": "23429735.4556405542"
            },
            "orbiting_body": "Earth"
        },
        {
            "close_approach_date": "2028-09-01",
            "close_approach_date_full": "2028-Sep-01 22:55",
            "epoch_date_close_approach": 1851461700000,
            "relative_velocity": {
                "kilometers_per_second": "8.0888852514",
                "kilometers_per_hour": "29119.9869052131",
                "miles_per_hour": "18094.0274189642"
            },
            "miss_distance": {
                "astronomical": "0.4215073161",
                "lunar": "163.9663459629",
                "kilometers": "63056596.677976707",
                "miles": "39181552.3029722766"
            },
            "orbiting_body": "Earth"
        }
    ],
    "orbital_data": {
        "orbit_id": "6",
        "orbit_determination_date": "2017-10-25 06:21:08",
        "first_observation_date": "2017-09-13",
        "last_observation_date": "2017-10-20",
        "data_arc_in_days": 37,
        "observations_used": 35,
        "orbit_uncertainty": "6",
        "minimum_orbit_intersection": ".243666",
        "jupiter_tisserand_invariant": "3.355",
        "epoch_osculation": "2459000.5",
        "eccentricity": ".4790316414338958",
        "semi_major_axis": "2.383453693764351",
        "inclination": "9.470047336164251",
        "ascending_node_longitude": "184.7250572038347",
        "orbital_period": "1344.028583718813",
        "perihelion_distance": "1.241703958558732",
        "perihelion_argument": "156.4979648790116",
        "aphelion_distance": "3.52520342896997",
        "perihelion_time": "2459347.496653280231",
        "mean_anomaly": "267.0564445621807",
        "mean_motion": ".2678514462868867",
        "equinox": "J2000",
        "orbit_class": {
            "orbit_class_type": "AMO",
            "orbit_class_description": "Near-Earth asteroid orbits similar to that of 1221 Amor",
            "orbit_class_range": "1.017 AU < q (perihelion) < 1.3 AU"
        }
    },
    "is_sentry_object": false
}